
[{"ORDINAL":"1","COMMENT":"GENERATED VIA SPACETRACK.ORG API","ORIGINATOR":"JSPOC","NORAD_CAT_ID":"40386","OBJECT_NAME":"BREEZE-M DEB (TANK)","OBJECT_TYPE":"DEBRIS","CLASSIFICATION_TYPE":"U","INTLDES":"15005C","EPOCH":"2016-03-24 03:31:16","EPOCH_MICROSECONDS":"843008","MEAN_MOTION":"5.26039058","ECCENTRICITY":"0.5160014","INCLINATION":"50.7436","RA_OF_ASC_NODE":"12.7842","ARG_OF_PERICENTER":"61.3605","MEAN_ANOMALY":"340.7212","EPHEMERIS_TYPE":"0","ELEMENT_SET_NO":"999","REV_AT_EPOCH":"2187","BSTAR":"0.00042644","MEAN_MOTION_DOT":"6.71e-06","MEAN_MOTION_DDOT":"0","FILE":"2011131","TLE_LINE0":"0 BREEZE-M DEB (TANK)","TLE_LINE1":"1 40386U 15005C   16084.14672272  .00000671  00000-0  42644-3 0  9999","TLE_LINE2":"2 40386  50.7436  12.7842 5160014  61.3605 340.7212  5.26039058 21875","OBJECT_ID":"2015-005C","OBJECT_NUMBER":"40386","SEMIMAJOR_AXIS":"13965.500","PERIOD":"273.743","APOGEE":"14793.583","PERIGEE":"381.147"},{"ORDINAL":"1","COMMENT":"GENERATED VIA SPACETRACK.ORG API","ORIGINATOR":"JSPOC","NORAD_CAT_ID":"41042","OBJECT_NAME":"CZ-4B DEB","OBJECT_TYPE":"DEBRIS","CLASSIFICATION_TYPE":"U","INTLDES":"15064E","EPOCH":"2016-03-24 03:36:08","EPOCH_MICROSECONDS":"856000","MEAN_MOTION":"14.82704209","ECCENTRICITY":"0.0222028","INCLINATION":"97.1954","RA_OF_ASC_NODE":"203.6852","ARG_OF_PERICENTER":"82.2426","MEAN_ANOMALY":"280.3636","EPHEMERIS_TYPE":"0","ELEMENT_SET_NO":"999","REV_AT_EPOCH":"1889","BSTAR":"0.00074999","MEAN_MOTION_DOT":"9.305e-05","MEAN_MOTION_DDOT":"0","FILE":"2011163","TLE_LINE0":"0 CZ-4B DEB","TLE_LINE1":"1 41042U 15064E   16084.15010250  .00009305  00000-0  74999-3 0  9998","TLE_LINE2":"2 41042  97.1954 203.6852 0222028  82.2426 280.3636 14.82704209 18895","OBJECT_ID":"2015-064E","OBJECT_NUMBER":"41042","SEMIMAJOR_AXIS":"6998.938","PERIOD":"97.119","APOGEE":"776.199","PERIGEE":"465.407"},{"ORDINAL":"1","COMMENT":"GENERATED VIA SPACETRACK.ORG API","ORIGINATOR":"JSPOC","NORAD_CAT_ID":"41342","OBJECT_NAME":"H-2A DEB","OBJECT_TYPE":"DEBRIS","CLASSIFICATION_TYPE":"U","INTLDES":"16012F","EPOCH":"2016-03-24 03:37:41","EPOCH_MICROSECONDS":"811168","MEAN_MOTION":"15.0198946","ECCENTRICITY":"0.0006706","INCLINATION":"31.008","RA_OF_ASC_NODE":"89.2699","ARG_OF_PERICENTER":"248.4389","MEAN_ANOMALY":"111.5346","EPHEMERIS_TYPE":"0","ELEMENT_SET_NO":"999","REV_AT_EPOCH":"537","BSTAR":"0.0035585","MEAN_MOTION_DOT":"0.00048095","MEAN_MOTION_DDOT":"0","FILE":"2011210","TLE_LINE0":"0 H-2A DEB","TLE_LINE1":"1 41342U 16012F   16084.15117837  .00048095  00000-0  35585-2 0  9990","TLE_LINE2":"2 41342  31.0080  89.2699 0006706 248.4389 111.5346 15.01989460  5377","OBJECT_ID":"2016-012F","OBJECT_NUMBER":"41342","SEMIMAJOR_AXIS":"6938.899","PERIOD":"95.872","APOGEE":"565.417","PERIGEE":"556.111"},{"ORDINAL":"1","COMMENT":"GENERATED VIA SPACETRACK.ORG API","ORIGINATOR":"JSPOC","NORAD_CAT_ID":"41312","OBJECT_NAME":"BREEZE-M DEB (TANK)","OBJECT_TYPE":"DEBRIS","CLASSIFICATION_TYPE":"U","INTLDES":"16005C","EPOCH":"2016-03-24 04:13:34","EPOCH_MICROSECONDS":"294368","MEAN_MOTION":"4.15968429","ECCENTRICITY":"0.5876072","INCLINATION":"49.4337","RA_OF_ASC_NODE":"82.2771","ARG_OF_PERICENTER":"20.6894","MEAN_ANOMALY":"355.5528","EPHEMERIS_TYPE":"0","ELEMENT_SET_NO":"999","REV_AT_EPOCH":"225","BSTAR":"0.00039189","MEAN_MOTION_DOT":"6.8e-06","MEAN_MOTION_DDOT":"0","FILE":"2011202","TLE_LINE0":"0 BREEZE-M DEB (TANK)","TLE_LINE1":"1 41312U 16005C   16084.17609137  .00000680  00000-0  39189-3 0  9993","TLE_LINE2":"2 41312  49.4337  82.2771 5876072  20.6894 355.5528  4.15968429  2254","OBJECT_ID":"2016-005C","OBJECT_NUMBER":"41312","SEMIMAJOR_AXIS":"16331.582","PERIOD":"346.180","APOGEE":"19550.002","PERIGEE":"356.891"},{"ORDINAL":"1","COMMENT":"GENERATED VIA SPACETRACK.ORG API","ORIGINATOR":"JSPOC","NORAD_CAT_ID":"41113","OBJECT_NAME":"FREGAT DEB","OBJECT_TYPE":"DEBRIS","CLASSIFICATION_TYPE":"U","INTLDES":"15074J","EPOCH":"2016-03-24 04:42:39","EPOCH_MICROSECONDS":"95712","MEAN_MOTION":"11.48518757","ECCENTRICITY":"0.1983939","INCLINATION":"50.4759","RA_OF_ASC_NODE":"25.365","ARG_OF_PERICENTER":"221.381","MEAN_ANOMALY":"122.0844","EPHEMERIS_TYPE":"0","ELEMENT_SET_NO":"999","REV_AT_EPOCH":"1159","BSTAR":"0.0048491","MEAN_MOTION_DOT":"0.00176137","MEAN_MOTION_DDOT":"5.909e-06","FILE":"2011200","TLE_LINE0":"0 FREGAT DEB","TLE_LINE1":"1 41113U 15074J   16084.19628583  .00176137  59090-5  48491-2 0  9999","TLE_LINE2":"2 41113  50.4759  25.3650 1983939 221.3810 122.0844 11.48518757 11596","OBJECT_ID":"2015-074J","OBJECT_NUMBER":"41113","SEMIMAJOR_AXIS":"8298.057","PERIOD":"125.378","APOGEE":"3566.206","PERIGEE":"273.638"},{"ORDINAL":"1","COMMENT":"GENERATED VIA SPACETRACK.ORG API","ORIGINATOR":"JSPOC","NORAD_CAT_ID":"40616","OBJECT_NAME":"ARIANE 5 DEB (SYLDA)","OBJECT_TYPE":"DEBRIS","CLASSIFICATION_TYPE":"U","INTLDES":"15022D","EPOCH":"2016-03-24 05:03:03","EPOCH_MICROSECONDS":"368160","MEAN_MOTION":"3.57202549","ECCENTRICITY":"0.6361305","INCLINATION":"5.5434","RA_OF_ASC_NODE":"171.0689","ARG_OF_PERICENTER":"152.8705","MEAN_ANOMALY":"263.6153","EPHEMERIS_TYPE":"0","ELEMENT_SET_NO":"999","REV_AT_EPOCH":"877","BSTAR":"0.007372","MEAN_MOTION_DOT":"0.00182745","MEAN_MOTION_DDOT":"0","FILE":"2011236","TLE_LINE0":"0 ARIANE 5 DEB (SYLDA)","TLE_LINE1":"1 40616U 15022D   16084.21045565  .00182745  00000-0  73720-2 0  9992","TLE_LINE2":"2 40616   5.5434 171.0689 6361305 152.8705 263.6153  3.57202549  8779","OBJECT_ID":"2015-022D","OBJECT_NUMBER":"40616","SEMIMAJOR_AXIS":"18076.963","PERIOD":"403.132","APOGEE":"23198.135","PERIGEE":"199.520"},{"ORDINAL":"2","COMMENT":"GENERATED VIA SPACETRACK.ORG API","ORIGINATOR":"JSPOC","NORAD_CAT_ID":"40735","OBJECT_NAME":"ARIANE 5 DEB (SYLDA)","OBJECT_TYPE":"DEBRIS","CLASSIFICATION_TYPE":"U","INTLDES":"15034D","EPOCH":"2016-03-24 08:43:30","EPOCH_MICROSECONDS":"264672","MEAN_MOTION":"2.38406502","ECCENTRICITY":"0.720315","INCLINATION":"4.114","RA_OF_ASC_NODE":"344.6341","ARG_OF_PERICENTER":"23.015","MEAN_ANOMALY":"357.2907","EPHEMERIS_TYPE":"0","ELEMENT_SET_NO":"999","REV_AT_EPOCH":"581","BSTAR":"0.013716","MEAN_MOTION_DOT":"0.00061093","MEAN_MOTION_DDOT":"0","FILE":"2011476","TLE_LINE0":"0 ARIANE 5 DEB (SYLDA)","TLE_LINE1":"1 40735U 15034D   16084.36354473  .00061093  00000-0  13716-1 0  9994","TLE_LINE2":"2 40735   4.1140 344.6341 7203150  23.0150 357.2907  2.38406502  5812","OBJECT_ID":"2015-034D","OBJECT_NUMBER":"40735","SEMIMAJOR_AXIS":"23669.537","PERIOD":"604.010","APOGEE":"34340.925","PERIGEE":"241.879"},{"ORDINAL":"1","COMMENT":"GENERATED VIA SPACETRACK.ORG API","ORIGINATOR":"JSPOC","NORAD_CAT_ID":"40735","OBJECT_NAME":"ARIANE 5 DEB (SYLDA)","OBJECT_TYPE":"DEBRIS","CLASSIFICATION_TYPE":"U","INTLDES":"15034D","EPOCH":"2016-03-24 08:43:32","EPOCH_MICROSECONDS":"187936","MEAN_MOTION":"2.38427079","ECCENTRICITY":"0.7204123","INCLINATION":"4.0695","RA_OF_ASC_NODE":"344.6618","ARG_OF_PERICENTER":"23.0152","MEAN_ANOMALY":"357.2884","EPHEMERIS_TYPE":"0","ELEMENT_SET_NO":"999","REV_AT_EPOCH":"581","BSTAR":"0.011431","MEAN_MOTION_DOT":"0.00054348","MEAN_MOTION_DDOT":"0","FILE":"2011388","TLE_LINE0":"0 ARIANE 5 DEB (SYLDA)","TLE_LINE1":"1 40735U 15034D   16084.36356699  .00054348  00000-0  11431-1 0  9993","TLE_LINE2":"2 40735   4.0695 344.6618 7204123  23.0152 357.2884  2.38427079  5812","OBJECT_ID":"2015-034D","OBJECT_NUMBER":"40735","SEMIMAJOR_AXIS":"23668.175","PERIOD":"603.958","APOGEE":"34340.886","PERIGEE":"239.195"},{"ORDINAL":"1","COMMENT":"GENERATED VIA SPACETRACK.ORG API","ORIGINATOR":"JSPOC","NORAD_CAT_ID":"40666","OBJECT_NAME":"ARIANE 5 DEB (SYLDA)","OBJECT_TYPE":"DEBRIS","CLASSIFICATION_TYPE":"U","INTLDES":"15026D","EPOCH":"2016-03-24 09:54:09","EPOCH_MICROSECONDS":"21024","MEAN_MOTION":"2.64886484","ECCENTRICITY":"0.7008864","INCLINATION":"4.0925","RA_OF_ASC_NODE":"264.7942","ARG_OF_PERICENTER":"75.8504","MEAN_ANOMALY":"347.512","EPHEMERIS_TYPE":"0","ELEMENT_SET_NO":"999","REV_AT_EPOCH":"712","BSTAR":"0.012241","MEAN_MOTION_DOT":"0.00103182","MEAN_MOTION_DDOT":"0","FILE":"2011300","TLE_LINE0":"0 ARIANE 5 DEB (SYLDA)","TLE_LINE1":"1 40666U 15026D   16084.41260441  .00103182  00000-0  12241-1 0  9993","TLE_LINE2":"2 40666   4.0925 264.7942 7008864  75.8504 347.5120  2.64886484  7122","OBJECT_ID":"2015-026D","OBJECT_NUMBER":"40666","SEMIMAJOR_AXIS":"22064.561","PERIOD":"543.629","APOGEE":"31151.178","PERIGEE":"221.675"},{"ORDINAL":"1","COMMENT":"GENERATED VIA SPACETRACK.ORG API","ORIGINATOR":"JSPOC","NORAD_CAT_ID":"40537","OBJECT_NAME":"SL-24 DEB","OBJECT_TYPE":"DEBRIS","CLASSIFICATION_TYPE":"U","INTLDES":"15014B","EPOCH":"2016-03-24 09:54:29","EPOCH_MICROSECONDS":"223072","MEAN_MOTION":"15.27364045","ECCENTRICITY":"0.0022609","INCLINATION":"97.5487","RA_OF_ASC_NODE":"30.3925","ARG_OF_PERICENTER":"126.1288","MEAN_ANOMALY":"234.2048","EPHEMERIS_TYPE":"0","ELEMENT_SET_NO":"999","REV_AT_EPOCH":"5542","BSTAR":"0.00051451","MEAN_MOTION_DOT":"0.00013823","MEAN_MOTION_DDOT":"0","FILE":"2011356","TLE_LINE0":"0 SL-24 DEB","TLE_LINE1":"1 40537U 15014B   16084.41283823  .00013823  00000-0  51451-3 0  9996","TLE_LINE2":"2 40537  97.5487  30.3925 0022609 126.1288 234.2048 15.27364045 55426","OBJECT_ID":"2015-014B","OBJECT_NUMBER":"40537","SEMIMAJOR_AXIS":"6861.832","PERIOD":"94.280","APOGEE":"499.211","PERIGEE":"468.183"}]